2025-313BD              
1 67299U 25313BD  26068.62968741  .00081010  00000+0  27634-2 0  9995
2 67299  97.3970 145.2850 0007287 333.4514  26.6352 15.30002360 10838
STARLINK-36473          
1 67325U 26002W   26068.77673787  .00026698  00000+0  97585-3 0  9994
2 67325  43.0009 324.6501 0001632 269.8270  90.2395 15.27591602 11253
